[{"OBJECT_NAME":"ONEWEB-0170","OBJECT_ID":"2021-025AB","EPOCH":"2026-01-10T22:14:11.984640","MEAN_MOTION":13.13475426,"ECCENTRICITY":0.00017381,"INCLINATION":87.8995,"RA_OF_ASC_NODE":351.4769,"ARG_OF_PERICENTER":68.2373,"MEAN_ANOMALY":291.8941,"EPHEMERIS_TYPE":0,"CLASSIFICATION_TYPE":"U","NORAD_CAT_ID":48067,"ELEMENT_SET_NO":999,"REV_AT_EPOCH":23290,"BSTAR":-0.0020301985,"MEAN_MOTION_DOT":-7.29e-6,"MEAN_MOTION_DDOT":0},{"OBJECT_NAME":"ONEWEB-0168","OBJECT_ID":"2021-025AC","EPOCH":"2026-01-10T21:52:17.214240","MEAN_MOTION":13.13469922,"ECCENTRICITY":0.00016692,"INCLINATION":87.9003,"RA_OF_ASC_NODE":351.4669,"ARG_OF_PERICENTER":90.4515,"MEAN_ANOMALY":269.6805,"EPHEMERIS_TYPE":0,"CLASSIFICATION_TYPE":"U","NORAD_CAT_ID":48068,"ELEMENT_SET_NO":999,"REV_AT_EPOCH":23291,"BSTAR":8.700559e-6,"MEAN_MOTION_DOT":1.6e-7,"MEAN_MOTION_DDOT":0},{"OBJECT_NAME":"ONEWEB-0173","OBJECT_ID":"2021-025AD","EPOCH":"2026-01-10T23:29:47.290848","MEAN_MOTION":13.13470308,"ECCENTRICITY":0.00013984,"INCLINATION":87.9005,"RA_OF_ASC_NODE":351.461,"ARG_OF_PERICENTER":92.7139,"MEAN_ANOMALY":267.415,"EPHEMERIS_TYPE":0,"CLASSIFICATION_TYPE":"U","NORAD_CAT_ID":48069,"ELEMENT_SET_NO":999,"REV_AT_EPOCH":23316,"BSTAR":-0.00057428112,"MEAN_MOTION_DOT":-1.97e-6,"MEAN_MOTION_DDOT":0},{"OBJECT_NAME":"ONEWEB-0171","OBJECT_ID":"2021-025AE","EPOCH":"2026-01-10T22:33:43.517664","MEAN_MOTION":13.13469438,"ECCENTRICITY":0.00016285,"INCLINATION":87.899,"RA_OF_ASC_NODE":351.4872,"ARG_OF_PERICENTER":82.5837,"MEAN_ANOMALY":277.5477,"EPHEMERIS_TYPE":0,"CLASSIFICATION_TYPE":"U","NORAD_CAT_ID":48070,"ELEMENT_SET_NO":999,"REV_AT_EPOCH":23297,"BSTAR":0.00046947035,"MEAN_MOTION_DOT":1.84e-6,"MEAN_MOTION_DDOT":0},{"OBJECT_NAME":"ONEWEB-0172","OBJECT_ID":"2021-025AF","EPOCH":"2026-01-10T22:04:28.477920","MEAN_MOTION":13.13470117,"ECCENTRICITY":0.00015725,"INCLINATION":87.8998,"RA_OF_ASC_NODE":351.4767,"ARG_OF_PERICENTER":84.0197,"MEAN_ANOMALY":276.1112,"EPHEMERIS_TYPE":0,"CLASSIFICATION_TYPE":"U","NORAD_CAT_ID":48071,"ELEMENT_SET_NO":999,"REV_AT_EPOCH":23386,"BSTAR":0.00064963861,"MEAN_MOTION_DOT":2.5e-6,"MEAN_MOTION_DDOT":0},{"OBJECT_NAME":"ONEWEB-0174","OBJECT_ID":"2021-025AG","EPOCH":"2026-01-10T23:27:20.992320","MEAN_MOTION":13.13470054,"ECCENTRICITY":0.00018275,"INCLINATION":87.8994,"RA_OF_ASC_NODE":351.4673,"ARG_OF_PERICENTER":89.3841,"MEAN_ANOMALY":270.7498,"EPHEMERIS_TYPE":0,"CLASSIFICATION_TYPE":"U","NORAD_CAT_ID":48072,"ELEMENT_SET_NO":999,"REV_AT_EPOCH":23319,"BSTAR":-0.00061965295,"MEAN_MOTION_DOT":-2.14e-6,"MEAN_MOTION_DDOT":0},{"OBJECT_NAME":"ONEWEB-0175","OBJECT_ID":"2021-025AH","EPOCH":"2026-01-10T22:21:32.531328","MEAN_MOTION":13.13469188,"ECCENTRICITY":0.00015212,"INCLINATION":87.9,"RA_OF_ASC_NODE":351.4477,"ARG_OF_PERICENTER":75.2684,"MEAN_ANOMALY":284.8614,"EPHEMERIS_TYPE":0,"CLASSIFICATION_TYPE":"U","NORAD_CAT_ID":48073,"ELEMENT_SET_NO":999,"REV_AT_EPOCH":23284,"BSTAR":0.00084574079,"MEAN_MOTION_DOT":3.22e-6,"MEAN_MOTION_DDOT":0},{"OBJECT_NAME":"ONEWEB-0177","OBJECT_ID":"2021-025AJ","EPOCH":"2026-01-10T22:38:36.310848","MEAN_MOTION":13.13469104,"ECCENTRICITY":0.00016998,"INCLINATION":87.9005,"RA_OF_ASC_NODE":351.4652,"ARG_OF_PERICENTER":91.3209,"MEAN_ANOMALY":268.8115,"EPHEMERIS_TYPE":0,"CLASSIFICATION_TYPE":"U","NORAD_CAT_ID":48074,"ELEMENT_SET_NO":999,"REV_AT_EPOCH":23303,"BSTAR":0.00013978604,"MEAN_MOTION_DOT":6.4e-7,"MEAN_MOTION_DDOT":0},{"OBJECT_NAME":"ONEWEB-0178","OBJECT_ID":"2021-025AK","EPOCH":"2026-01-10T23:05:36.987360","MEAN_MOTION":13.13468691,"ECCENTRICITY":0.00014839,"INCLINATION":87.8987,"RA_OF_ASC_NODE":351.4992,"ARG_OF_PERICENTER":84.8618,"MEAN_ANOMALY":275.2681,"EPHEMERIS_TYPE":0,"CLASSIFICATION_TYPE":"U","NORAD_CAT_ID":48075,"ELEMENT_SET_NO":999,"REV_AT_EPOCH":23308,"BSTAR":-0.00067834104,"MEAN_MOTION_DOT":-2.35e-6,"MEAN_MOTION_DDOT":0},{"OBJECT_NAME":"ONEWEB-0108","OBJECT_ID":"2021-025AL","EPOCH":"2026-01-10T22:06:54.826560","MEAN_MOTION":13.13470897,"ECCENTRICITY":0.00019638,"INCLINATION":87.9001,"RA_OF_ASC_NODE":351.4588,"ARG_OF_PERICENTER":83.9829,"MEAN_ANOMALY":276.1524,"EPHEMERIS_TYPE":0,"CLASSIFICATION_TYPE":"U","NORAD_CAT_ID":48076,"ELEMENT_SET_NO":999,"REV_AT_EPOCH":23300,"BSTAR":0.00079922497,"MEAN_MOTION_DOT":3.05e-6,"MEAN_MOTION_DDOT":0},{"OBJECT_NAME":"ONEWEB-0169","OBJECT_ID":"2021-025AM","EPOCH":"2026-01-10T21:03:31.467456","MEAN_MOTION":13.134682,"ECCENTRICITY":0.00019602,"INCLINATION":87.8997,"RA_OF_ASC_NODE":351.487,"ARG_OF_PERICENTER":84.7486,"MEAN_ANOMALY":275.3867,"EPHEMERIS_TYPE":0,"CLASSIFICATION_TYPE":"U","NORAD_CAT_ID":48077,"ELEMENT_SET_NO":999,"REV_AT_EPOCH":23165,"BSTAR":-0.00034720951,"MEAN_MOTION_DOT":-1.14e-6,"MEAN_MOTION_DDOT":0},{"OBJECT_NAME":"ONEWEB-0176","OBJECT_ID":"2021-031A","EPOCH":"2026-01-10T18:25:05.365344","MEAN_MOTION":13.14503345,"ECCENTRICITY":0.00016324,"INCLINATION":87.902,"RA_OF_ASC_NODE":321.0694,"ARG_OF_PERICENTER":77.8572,"MEAN_ANOMALY":282.274,"EPHEMERIS_TYPE":0,"CLASSIFICATION_TYPE":"U","NORAD_CAT_ID":48210,"ELEMENT_SET_NO":999,"REV_AT_EPOCH":22763,"BSTAR":0.00082977876,"MEAN_MOTION_DOT":3.2e-6,"MEAN_MOTION_DDOT":0},{"OBJECT_NAME":"ONEWEB-0184","OBJECT_ID":"2021-031B","EPOCH":"2026-01-10T14:07:02.248608","MEAN_MOTION":13.14502619,"ECCENTRICITY":0.00011692,"INCLINATION":87.9032,"RA_OF_ASC_NODE":321.0888,"ARG_OF_PERICENTER":53.9519,"MEAN_ANOMALY":306.1718,"EPHEMERIS_TYPE":0,"CLASSIFICATION_TYPE":"U","NORAD_CAT_ID":48211,"ELEMENT_SET_NO":999,"REV_AT_EPOCH":22758,"BSTAR":-0.00027061153,"MEAN_MOTION_DOT":-8.8e-7,"MEAN_MOTION_DDOT":0},{"OBJECT_NAME":"ONEWEB-0179","OBJECT_ID":"2021-031C","EPOCH":"2026-01-10T20:43:12.701280","MEAN_MOTION":13.14505073,"ECCENTRICITY":0.00017484,"INCLINATION":87.9027,"RA_OF_ASC_NODE":321.0405,"ARG_OF_PERICENTER":87.5976,"MEAN_ANOMALY":272.5354,"EPHEMERIS_TYPE":0,"CLASSIFICATION_TYPE":"U","NORAD_CAT_ID":48212,"ELEMENT_SET_NO":999,"REV_AT_EPOCH":22766,"BSTAR":0.0001468309,"MEAN_MOTION_DOT":6.7e-7,"MEAN_MOTION_DDOT":0},{"OBJECT_NAME":"ONEWEB-0180","OBJECT_ID":"2021-031D","EPOCH":"2026-01-10T14:11:36.515040","MEAN_MOTION":13.14503013,"ECCENTRICITY":0.00014646,"INCLINATION":87.9032,"RA_OF_ASC_NODE":321.0936,"ARG_OF_PERICENTER":85.4972,"MEAN_ANOMALY":274.6325,"EPHEMERIS_TYPE":0,"CLASSIFICATION_TYPE":"U","NORAD_CAT_ID":48213,"ELEMENT_SET_NO":999,"REV_AT_EPOCH":22751,"BSTAR":1.5559004e-5,"MEAN_MOTION_DOT":1.9e-7,"MEAN_MOTION_DDOT":0},{"OBJECT_NAME":"ONEWEB-0218","OBJECT_ID":"2021-031E","EPOCH":"2026-01-10T18:22:45.517440","MEAN_MOTION":13.14505325,"ECCENTRICITY":8.713e-5,"INCLINATION":87.9031,"RA_OF_ASC_NODE":321.0595,"ARG_OF_PERICENTER":62.0692,"MEAN_ANOMALY":298.0526,"EPHEMERIS_TYPE":0,"CLASSIFICATION_TYPE":"U","NORAD_CAT_ID":48214,"ELEMENT_SET_NO":999,"REV_AT_EPOCH":22769,"BSTAR":0.00068642703,"MEAN_MOTION_DOT":2.67e-6,"MEAN_MOTION_DDOT":0}]
