ONEWEB-0170             
1 48067U 21025AB  26010.92652760 -.00000729  00000+0 -20302-2 0  9999
2 48067  87.8995 351.4769 0001738  68.2373 291.8941 13.13475426232902
ONEWEB-0168             
1 48068U 21025AC  26010.91131035  .00000016  00000+0  87006-5 0  9990
2 48068  87.9003 351.4669 0001669  90.4515 269.6805 13.13469922232918
ONEWEB-0173             
1 48069U 21025AD  26010.97901957 -.00000197  00000+0 -57428-3 0  9990
2 48069  87.9005 351.4610 0001398  92.7139 267.4150 13.13470308233160
ONEWEB-0171             
1 48070U 21025AE  26010.94008701  .00000184  00000+0  46947-3 0  9992
2 48070  87.8990 351.4872 0001628  82.5837 277.5477 13.13469438232976
ONEWEB-0172             
1 48071U 21025AF  26010.91977405  .00000250  00000+0  64964-3 0  9999
2 48071  87.8998 351.4767 0001572  84.0197 276.1112 13.13470117233868
ONEWEB-0174             
1 48072U 21025AG  26010.97732630 -.00000214  00000+0 -61965-3 0  9995
2 48072  87.8994 351.4673 0001827  89.3841 270.7498 13.13470054233191
ONEWEB-0175             
1 48073U 21025AH  26010.93162652  .00000322  00000+0  84574-3 0  9992
2 48073  87.9000 351.4477 0001521  75.2684 284.8614 13.13469188232846
ONEWEB-0177             
1 48074U 21025AJ  26010.94347582  .00000064  00000+0  13979-3 0  9995
2 48074  87.9005 351.4652 0001699  91.3209 268.8115 13.13469104233033
ONEWEB-0178             
1 48075U 21025AK  26010.96223365 -.00000235  00000+0 -67834-3 0  9991
2 48075  87.8987 351.4992 0001483  84.8618 275.2681 13.13468691233086
ONEWEB-0108             
1 48076U 21025AL  26010.92146790  .00000305  00000+0  79922-3 0  9991
2 48076  87.9001 351.4588 0001963  83.9829 276.1524 13.13470897233002
ONEWEB-0169             
1 48077U 21025AM  26010.87744754 -.00000114  00000+0 -34721-3 0  9998
2 48077  87.8997 351.4870 0001960  84.7486 275.3867 13.13468200231650
ONEWEB-0176             
1 48210U 21031A   26010.76742321  .00000320  00000+0  82978-3 0  9994
2 48210  87.9020 321.0694 0001632  77.8572 282.2740 13.14503345227630
ONEWEB-0184             
1 48211U 21031B   26010.58822047 -.00000088  00000+0 -27061-3 0  9994
2 48211  87.9032 321.0888 0001169  53.9519 306.1718 13.14502619227588
ONEWEB-0179             
1 48212U 21031C   26010.86334145  .00000067  00000+0  14683-3 0  9994
2 48212  87.9027 321.0405 0001748  87.5976 272.5354 13.14505073227669
ONEWEB-0180             
1 48213U 21031D   26010.59139485  .00000019  00000+0  15559-4 0  9996
2 48213  87.9032 321.0936 0001464  85.4972 274.6325 13.14503013227510
ONEWEB-0218             
1 48214U 21031E   26010.76580460  .00000267  00000+0  68643-3 0  9995
2 48214  87.9031 321.0595 0000871  62.0692 298.0526 13.14505325227692
